{
  "type": "FeatureCollection",
  "features": [
    {
      "type": "Feature",
      "properties": {
        "slug": "lady-bird-park",
        "name": "Flightline Commons",
        "always_unlocked": false
      },
      "geometry": {
        "type": "Polygon",
        "coordinates": [
          [
            [-98.9175, 30.2340],
            [-98.8995, 30.2340],
            [-98.8995, 30.2515],
            [-98.9175, 30.2515],
            [-98.9175, 30.2340]
          ]
        ]
      }
    }
  ]
}
